STARLINK-5941           
1 56013U 23042AD  26076.98432466 -.00000301  00000+0 -72340-5 0  9995
2 56013  43.0003  10.5549 0000376 264.4542  95.6257 15.02536055164168
STARLINK-5942           
1 56014U 23042AE  26077.83335647  .00034511  00000+0  16733-2 0  9993
2 56014  43.0009 352.8796 0001825 254.4188  54.2193 15.17923067  5811
STARLINK-5939           
1 56015U 23042AF  26077.83335647  .00030382  00000+0  14219-2 0  9993
2 56015  43.0014 352.8088 0001883 235.6060 101.1345 15.19202945  5814
STARLINK-5943           
1 56016U 23042AG  26077.83335647  .00028680  00000+0  15070-2 0  9998
2 56016  42.9995 353.0225 0000773 229.1395  16.3126 15.15179380  5774
STARLINK-5934           
1 56017U 23042AH  26077.83335647  .00027561  00000+0  14178-2 0  9994
2 56017  43.0006 353.0997 0000487 266.4965 306.9897 15.15945931  5816
STARLINK-5945           
1 56018U 23042AJ  26077.83335647  .00026846  00000+0  14474-2 0  9999
2 56018  43.0000 353.0721 0000820 218.9303   6.3014 15.14294911  5709
STARLINK-5949           
1 56019U 23042AK  26077.83335647  .00028822  00000+0  14528-2 0  9996
2 56019  43.0001 353.0549 0000681 257.9511 334.6349 15.16640804  5816
STARLINK-5912           
1 56020U 23042AL  26077.83335647  .00030451  00000+0  15655-2 0  9991
2 56020  43.0001 352.9615 0001694 238.4034  34.2416 15.15923449  5815
STARLINK-5907           
1 56021U 23042AM  26077.83335647  .00027227  00000+0  14174-2 0  9994
2 56021  42.9997 353.0434 0000697 245.6829 351.7282 15.15528720  5814
STARLINK-5783           
1 56022U 23042AN  26077.83335647  .00033007  00000+0  16130-2 0  9992
2 56022  43.0005 352.5530 0001206 298.2383 145.7716 15.17667089  5822
STARLINK-5771           
1 56023U 23042AP  26077.83335647  .00028932  00000+0  15640-2 0  9999
2 56023  43.0004 353.0501 0001256 209.5538  24.3834 15.14170549  5761
STARLINK-5772           
1 56024U 23042AQ  26077.83335647  .00065629  00000+0  33293-2 0  9998
2 56024  43.0006 352.8300 0002480 256.1730  69.2514 15.16077787  5822
STARLINK-5766           
1 56025U 23042AR  26077.83335647  .00028758  00000+0  15072-2 0  9996
2 56025  43.0000 353.3371 0000837 283.1684 186.5411 15.15270404  5710
STARLINK-5770           
1 56026U 23042AS  26077.83335647  .00032826  00000+0  16041-2 0  9995
2 56026  43.0004 352.5348 0001115 303.9228 147.5228 15.17670271  5716
STARLINK-5777           
1 56027U 23042AT  26077.83335647  .00031082  00000+0  15328-2 0  9996
2 56027  43.0010 352.7095 0001918 259.4386 117.6704 15.17374846  5767
STARLINK-5779           
1 56028U 23042AU  26077.83335647  .00028627  00000+0  15357-2 0  9990
2 56028  43.0013 352.7747 0001995 256.6125  91.2880 15.14445806  5821
STARLINK-5774           
1 56029U 23042AV  26077.83335647  .00063791  00000+0  31511-2 0  9992
2 56029  43.0005 352.9114 0002633 226.7581  61.7277 15.17022043  5826
