[{"OBJECT_NAME":"STARLINK-5941","OBJECT_ID":"2023-042AD","EPOCH":"2026-03-17T23:37:25.650624","MEAN_MOTION":15.02536055,"ECCENTRICITY":3.763e-5,"INCLINATION":43.0003,"RA_OF_ASC_NODE":10.5549,"ARG_OF_PERICENTER":264.4542,"MEAN_ANOMALY":95.6257,"EPHEMERIS_TYPE":0,"CLASSIFICATION_TYPE":"U","NORAD_CAT_ID":56013,"ELEMENT_SET_NO":999,"REV_AT_EPOCH":16416,"BSTAR":-7.23405e-6,"MEAN_MOTION_DOT":-3.01e-6,"MEAN_MOTION_DDOT":0},{"OBJECT_NAME":"STARLINK-5942","OBJECT_ID":"2023-042AE","EPOCH":"2026-03-18T20:00:01.999008","MEAN_MOTION":15.17923067,"ECCENTRICITY":0.0001825,"INCLINATION":43.0009,"RA_OF_ASC_NODE":352.8796,"ARG_OF_PERICENTER":254.4188,"MEAN_ANOMALY":54.2193,"EPHEMERIS_TYPE":0,"CLASSIFICATION_TYPE":"U","NORAD_CAT_ID":56014,"ELEMENT_SET_NO":999,"REV_AT_EPOCH":581,"BSTAR":0.0016733,"MEAN_MOTION_DOT":0.00034511,"MEAN_MOTION_DDOT":0},{"OBJECT_NAME":"STARLINK-5939","OBJECT_ID":"2023-042AF","EPOCH":"2026-03-18T20:00:01.999008","MEAN_MOTION":15.19202945,"ECCENTRICITY":0.0001883,"INCLINATION":43.0014,"RA_OF_ASC_NODE":352.8088,"ARG_OF_PERICENTER":235.606,"MEAN_ANOMALY":101.1345,"EPHEMERIS_TYPE":0,"CLASSIFICATION_TYPE":"U","NORAD_CAT_ID":56015,"ELEMENT_SET_NO":999,"REV_AT_EPOCH":581,"BSTAR":0.0014219,"MEAN_MOTION_DOT":0.00030382,"MEAN_MOTION_DDOT":0},{"OBJECT_NAME":"STARLINK-5943","OBJECT_ID":"2023-042AG","EPOCH":"2026-03-18T20:00:01.999008","MEAN_MOTION":15.1517938,"ECCENTRICITY":7.73e-5,"INCLINATION":42.9995,"RA_OF_ASC_NODE":353.0225,"ARG_OF_PERICENTER":229.1395,"MEAN_ANOMALY":16.3126,"EPHEMERIS_TYPE":0,"CLASSIFICATION_TYPE":"U","NORAD_CAT_ID":56016,"ELEMENT_SET_NO":999,"REV_AT_EPOCH":577,"BSTAR":0.001507,"MEAN_MOTION_DOT":0.0002868,"MEAN_MOTION_DDOT":0},{"OBJECT_NAME":"STARLINK-5934","OBJECT_ID":"2023-042AH","EPOCH":"2026-03-18T20:00:01.999008","MEAN_MOTION":15.15945931,"ECCENTRICITY":4.87e-5,"INCLINATION":43.0006,"RA_OF_ASC_NODE":353.0997,"ARG_OF_PERICENTER":266.4965,"MEAN_ANOMALY":306.9897,"EPHEMERIS_TYPE":0,"CLASSIFICATION_TYPE":"U","NORAD_CAT_ID":56017,"ELEMENT_SET_NO":999,"REV_AT_EPOCH":581,"BSTAR":0.0014178,"MEAN_MOTION_DOT":0.00027561,"MEAN_MOTION_DDOT":0},{"OBJECT_NAME":"STARLINK-5945","OBJECT_ID":"2023-042AJ","EPOCH":"2026-03-18T20:00:01.999008","MEAN_MOTION":15.14294911,"ECCENTRICITY":8.2e-5,"INCLINATION":43,"RA_OF_ASC_NODE":353.0721,"ARG_OF_PERICENTER":218.9303,"MEAN_ANOMALY":6.3014,"EPHEMERIS_TYPE":0,"CLASSIFICATION_TYPE":"U","NORAD_CAT_ID":56018,"ELEMENT_SET_NO":999,"REV_AT_EPOCH":570,"BSTAR":0.0014474,"MEAN_MOTION_DOT":0.00026846,"MEAN_MOTION_DDOT":0},{"OBJECT_NAME":"STARLINK-5949","OBJECT_ID":"2023-042AK","EPOCH":"2026-03-18T20:00:01.999008","MEAN_MOTION":15.16640804,"ECCENTRICITY":6.81e-5,"INCLINATION":43.0001,"RA_OF_ASC_NODE":353.0549,"ARG_OF_PERICENTER":257.9511,"MEAN_ANOMALY":334.6349,"EPHEMERIS_TYPE":0,"CLASSIFICATION_TYPE":"U","NORAD_CAT_ID":56019,"ELEMENT_SET_NO":999,"REV_AT_EPOCH":581,"BSTAR":0.0014528,"MEAN_MOTION_DOT":0.00028822,"MEAN_MOTION_DDOT":0},{"OBJECT_NAME":"STARLINK-5912","OBJECT_ID":"2023-042AL","EPOCH":"2026-03-18T20:00:01.999008","MEAN_MOTION":15.15923449,"ECCENTRICITY":0.0001694,"INCLINATION":43.0001,"RA_OF_ASC_NODE":352.9615,"ARG_OF_PERICENTER":238.4034,"MEAN_ANOMALY":34.2416,"EPHEMERIS_TYPE":0,"CLASSIFICATION_TYPE":"U","NORAD_CAT_ID":56020,"ELEMENT_SET_NO":999,"REV_AT_EPOCH":581,"BSTAR":0.0015655,"MEAN_MOTION_DOT":0.00030451,"MEAN_MOTION_DDOT":0},{"OBJECT_NAME":"STARLINK-5907","OBJECT_ID":"2023-042AM","EPOCH":"2026-03-18T20:00:01.999008","MEAN_MOTION":15.1552872,"ECCENTRICITY":6.97e-5,"INCLINATION":42.9997,"RA_OF_ASC_NODE":353.0434,"ARG_OF_PERICENTER":245.6829,"MEAN_ANOMALY":351.7282,"EPHEMERIS_TYPE":0,"CLASSIFICATION_TYPE":"U","NORAD_CAT_ID":56021,"ELEMENT_SET_NO":999,"REV_AT_EPOCH":581,"BSTAR":0.0014174,"MEAN_MOTION_DOT":0.00027227,"MEAN_MOTION_DDOT":0},{"OBJECT_NAME":"STARLINK-5783","OBJECT_ID":"2023-042AN","EPOCH":"2026-03-18T20:00:01.999008","MEAN_MOTION":15.17667089,"ECCENTRICITY":0.0001206,"INCLINATION":43.0005,"RA_OF_ASC_NODE":352.553,"ARG_OF_PERICENTER":298.2383,"MEAN_ANOMALY":145.7716,"EPHEMERIS_TYPE":0,"CLASSIFICATION_TYPE":"U","NORAD_CAT_ID":56022,"ELEMENT_SET_NO":999,"REV_AT_EPOCH":582,"BSTAR":0.001613,"MEAN_MOTION_DOT":0.00033007,"MEAN_MOTION_DDOT":0},{"OBJECT_NAME":"STARLINK-5771","OBJECT_ID":"2023-042AP","EPOCH":"2026-03-18T20:00:01.999008","MEAN_MOTION":15.14170549,"ECCENTRICITY":0.0001256,"INCLINATION":43.0004,"RA_OF_ASC_NODE":353.0501,"ARG_OF_PERICENTER":209.5538,"MEAN_ANOMALY":24.3834,"EPHEMERIS_TYPE":0,"CLASSIFICATION_TYPE":"U","NORAD_CAT_ID":56023,"ELEMENT_SET_NO":999,"REV_AT_EPOCH":576,"BSTAR":0.001564,"MEAN_MOTION_DOT":0.00028932,"MEAN_MOTION_DDOT":0},{"OBJECT_NAME":"STARLINK-5772","OBJECT_ID":"2023-042AQ","EPOCH":"2026-03-18T20:00:01.999008","MEAN_MOTION":15.16077787,"ECCENTRICITY":0.000248,"INCLINATION":43.0006,"RA_OF_ASC_NODE":352.83,"ARG_OF_PERICENTER":256.173,"MEAN_ANOMALY":69.2514,"EPHEMERIS_TYPE":0,"CLASSIFICATION_TYPE":"U","NORAD_CAT_ID":56024,"ELEMENT_SET_NO":999,"REV_AT_EPOCH":582,"BSTAR":0.0033293,"MEAN_MOTION_DOT":0.00065629,"MEAN_MOTION_DDOT":0},{"OBJECT_NAME":"STARLINK-5766","OBJECT_ID":"2023-042AR","EPOCH":"2026-03-18T20:00:01.999008","MEAN_MOTION":15.15270404,"ECCENTRICITY":8.37e-5,"INCLINATION":43,"RA_OF_ASC_NODE":353.3371,"ARG_OF_PERICENTER":283.1684,"MEAN_ANOMALY":186.5411,"EPHEMERIS_TYPE":0,"CLASSIFICATION_TYPE":"U","NORAD_CAT_ID":56025,"ELEMENT_SET_NO":999,"REV_AT_EPOCH":571,"BSTAR":0.0015072,"MEAN_MOTION_DOT":0.00028758,"MEAN_MOTION_DDOT":0},{"OBJECT_NAME":"STARLINK-5770","OBJECT_ID":"2023-042AS","EPOCH":"2026-03-18T20:00:01.999008","MEAN_MOTION":15.17670271,"ECCENTRICITY":0.0001115,"INCLINATION":43.0004,"RA_OF_ASC_NODE":352.5348,"ARG_OF_PERICENTER":303.9228,"MEAN_ANOMALY":147.5228,"EPHEMERIS_TYPE":0,"CLASSIFICATION_TYPE":"U","NORAD_CAT_ID":56026,"ELEMENT_SET_NO":999,"REV_AT_EPOCH":571,"BSTAR":0.0016041,"MEAN_MOTION_DOT":0.00032826,"MEAN_MOTION_DDOT":0},{"OBJECT_NAME":"STARLINK-5777","OBJECT_ID":"2023-042AT","EPOCH":"2026-03-18T20:00:01.999008","MEAN_MOTION":15.17374846,"ECCENTRICITY":0.0001918,"INCLINATION":43.001,"RA_OF_ASC_NODE":352.7095,"ARG_OF_PERICENTER":259.4386,"MEAN_ANOMALY":117.6704,"EPHEMERIS_TYPE":0,"CLASSIFICATION_TYPE":"U","NORAD_CAT_ID":56027,"ELEMENT_SET_NO":999,"REV_AT_EPOCH":576,"BSTAR":0.0015328,"MEAN_MOTION_DOT":0.00031082,"MEAN_MOTION_DDOT":0},{"OBJECT_NAME":"STARLINK-5779","OBJECT_ID":"2023-042AU","EPOCH":"2026-03-18T20:00:01.999008","MEAN_MOTION":15.14445806,"ECCENTRICITY":0.0001995,"INCLINATION":43.0013,"RA_OF_ASC_NODE":352.7747,"ARG_OF_PERICENTER":256.6125,"MEAN_ANOMALY":91.288,"EPHEMERIS_TYPE":0,"CLASSIFICATION_TYPE":"U","NORAD_CAT_ID":56028,"ELEMENT_SET_NO":999,"REV_AT_EPOCH":582,"BSTAR":0.0015357,"MEAN_MOTION_DOT":0.00028627,"MEAN_MOTION_DDOT":0},{"OBJECT_NAME":"STARLINK-5774","OBJECT_ID":"2023-042AV","EPOCH":"2026-03-18T20:00:01.999008","MEAN_MOTION":15.17022043,"ECCENTRICITY":0.0002633,"INCLINATION":43.0005,"RA_OF_ASC_NODE":352.9114,"ARG_OF_PERICENTER":226.7581,"MEAN_ANOMALY":61.7277,"EPHEMERIS_TYPE":0,"CLASSIFICATION_TYPE":"U","NORAD_CAT_ID":56029,"ELEMENT_SET_NO":999,"REV_AT_EPOCH":582,"BSTAR":0.0031511,"MEAN_MOTION_DOT":0.00063791,"MEAN_MOTION_DDOT":0}]
